1 45559U 20025AE  23358.66832043  .00002966  00000-0  21795-3 0  9990
2 45559  53.0542 104.9383 0001316  74.2789 285.8345 15.06400961203883
1 45559U 20025AE  23358.66832043  .00002966  00000-0  21795-3 0  9990
2 45559  53.0542 104.9383 0001316  74.2789 285.8345 15.06400961203287
1 45559U 20025AE  23359.46447622  .00013986  00000-0  95544-3 0  9991
2 45559  53.0545 101.3638 0001294  86.3666 273.7471 15.06421176203408
1 45559U 20025AE  23359.53082169  .00015964  00000-0  10874-2 0  9990
2 45559  53.0545 101.0661 0001308  84.6382 275.4756 15.06425876204017
1 45559U 20025AE  23360.45968512  .00006061  00000-0  42542-3 0  9994
2 45559  53.0545  96.8967 0001450  91.8337 268.2818 15.06399115203558
1 45559U 20025AE  23360.59238025 -.00000231  00000-0  34121-5 0  9998
2 45559  53.0539  96.3005 0001200  95.5893 264.5233 15.06387535204172
1 45559U 20025AE  23360.65872831 -.00001204  00000-0 -61955-4 0  9990
2 45559  53.0538  96.0026 0001199  86.5457 273.5669 15.06388729204184
1 45559U 20025AE  23360.65872831 -.00001204  00000-0 -61955-4 0  9990
2 45559  53.0538  96.0026 0001199  86.5457 273.5669 15.06388729203587
1 45559U 20025AE  23361.52123961  .00010586  00000-0  72845-3 0  9990
2 45559  53.0540  92.1332 0001183  82.3532 277.7591 15.06403076204313
1 45559U 20025AE  23361.52123961  .00010586  00000-0  72845-3 0  9990
2 45559  53.0540  92.1332 0001183  82.3532 277.7591 15.06403076203716
1 45559U 20025AE  23362.51645132  .00004250  00000-0  30406-3 0  9997
2 45559  53.0542  87.6657 0001231  87.4449 272.6680 15.06393778204467
1 45559U 20025AE  23362.51645132  .00004250  00000-0  30406-3 0  9997
2 45559  53.0542  87.6657 0001231  87.4449 272.6680 15.06393778203860
1 45559U 20025AE  23363.44530676  .00009918  00000-0  68361-3 0  9993
2 45559  53.0544  83.4956 0001302  83.3047 276.8090 15.06408495204603
1 45559U 20025AE  23363.44530676  .00009918  00000-0  68361-3 0  9993
2 45559  53.0544  83.4956 0001302  83.3047 276.8090 15.06408495204007
1 45559U 20025AE  23364.44051136  .00002463  00000-0  18421-3 0  9993
2 45559  53.0544  79.0266 0001350  82.1632 277.9510 15.06400279204755
1 45559U 20025AE  23364.44051136  .00002463  00000-0  18421-3 0  9993
2 45559  53.0544  79.0266 0001350  82.1632 277.9510 15.06400279204159
